CTC2_L_00602007-03
1 48400U 24568DQ  26070.40851852  .00000000  00000+0  00000-0 0  9998
2 48400  60.0000 180.0000 0000000   0.0000 144.0000  5.94050274    19
CTC2_L_00602007-04
1 48401U 26974IA  26070.40851852  .00000000  00000+0  00000-0 0  9992
2 48401  60.0000 180.0000 0000000   0.0000 180.0000  5.94050274    10
CTC2_L_00602007-05
1 48402U 22265J   26070.40851852  .00000000  00000+0  00000-0 0  9992
2 48402  60.0000 180.0000 0000000   0.0000 216.0000  5.94050274    11
CTC2_L_00602007-06
1 48403U 23582TB  26070.40851852  .00000000  00000+0  00000-0 0  9996
2 48403  60.0000 180.0000 0000000   0.0000 252.0000  5.94050274    12
CTC2_L_00602007-07
1 48404U 25414YX  26070.40851852  .00000000  00000+0  00000-0 0  9993
2 48404  60.0000 180.0000 0000000   0.0000 288.0000  5.94050274    12
CTC2_L_00602007-08
1 48405U 22831MQ  26070.40851852  .00000000  00000+0  00000-0 0  9994
2 48405  60.0000 180.0000 0000000   0.0000 324.0000  5.94050274    14
CTC2_L_00602007-09
1 48406U 25976WM  26070.40851852  .00000000  00000+0  00000-0 0  9998
2 48406  60.0000 180.0000 0000000   0.0000   0.0000  5.94050274    16
CTC2_L_00602007-10
1 48407U 24006M   26070.40851852  .00000000  00000+0  00000-0 0  9992
2 48407  60.0000 180.0000 0000000   0.0000  36.0000  5.94050274    16
CTC2_L_00602008-01
1 48408U 22482IG  26070.40851852  .00000000  00000+0  00000-0 0  9999
2 48408  60.0000 210.0000 0000000   0.0000  84.0000  5.94050274    14
CTC2_L_00602008-02
1 48409U 22054TK  26070.40851852  .00000000  00000+0  00000-0 0  9995
2 48409  60.0000 210.0000 0000000   0.0000 120.0000  5.94050274    16
CTC2_L_00602008-03
1 48410U 23096OL  26070.40851852  .00000000  00000+0  00000-0 0  9994
2 48410  60.0000 210.0000 0000000   0.0000 156.0000  5.94050274    17
CTC2_L_00602008-04
1 48411U 24707AI  26070.40851852  .00000000  00000+0  00000-0 0  9995
2 48411  60.0000 210.0000 0000000   0.0000 192.0000  5.94050274    18
CTC2_L_00602008-05
1 48412U 25918YH  26070.40851852  .00000000  00000+0  00000-0 0  9991
2 48412  60.0000 210.0000 0000000   0.0000 228.0000  5.94050274    19
CTC2_L_00602008-06
1 48413U 25186JG  26070.40851852  .00000000  00000+0  00000-0 0  9999
2 48413  60.0000 210.0000 0000000   0.0000 264.0000  5.94050274    10
CTC2_L_00602008-07
1 48414U 26423MF  26070.40851852  .00000000  00000+0  00000-0 0  9995
2 48414  60.0000 210.0000 0000000   0.0000 300.0000  5.94050274    12
CTC2_L_00602008-08
1 48415U 24006BS  26070.40851852  .00000000  00000+0  00000-0 0  9991
2 48415  60.0000 210.0000 0000000   0.0000 336.0000  5.94050274    12
CTC2_L_00602008-09
1 48416U 23625UJ  26070.40851852  .00000000  00000+0  00000-0 0  9998
2 48416  60.0000 210.0000 0000000   0.0000  12.0000  5.94050274    14
CTC2_L_00602008-10
1 48417U 24502YR  26070.40851852  .00000000  00000+0  00000-0 0  9994
2 48417  60.0000 210.0000 0000000   0.0000  48.0000  5.94050274    14
CTC2_L_00602009-01
1 48418U 26727SP  26070.40851852  .00000000  00000+0  00000-0 0  9996
2 48418  60.0000 240.0000 0000000   0.0000  96.0000  5.94050274    11
CTC2_L_00602009-02
1 48419U 23221SD  26070.40851852  .00000000  00000+0  00000-0 0  9993
2 48419  60.0000 240.0000 0000000   0.0000 132.0000  5.94050274    13
CTC2_L_00602009-03
1 48420U 23844VP  26070.40851852  .00000000  00000+0  00000-0 0  9996
2 48420  60.0000 240.0000 0000000   0.0000 168.0000  5.94050274    14
CTC2_L_00602009-04
1 48421U 25759DQ  26070.40851852  .00000000  00000+0  00000-0 0  9994
2 48421  60.0000 240.0000 0000000   0.0000 204.0000  5.94050274    16
CTC2_L_00602009-05
1 48422U 23125AJ  26070.40851852  .00000000  00000+0  00000-0 0  9990
2 48422  60.0000 240.0000 0000000   0.0000 240.0000  5.94050274    17
CTC2_L_00602009-06
1 48423U 25703QU  26070.40851852  .00000000  00000+0  00000-0 0  9995
2 48423  60.0000 240.0000 0000000   0.0000 276.0000  5.94050274    17
CTC2_L_00602009-07
1 48424U 23453DM  26070.40851852  .00000000  00000+0  00000-0 0  9996
2 48424  60.0000 240.0000 0000000   0.0000 312.0000  5.94050274    19
CTC2_L_00602009-08
1 48425U 23196BU  26070.40851852  .00000000  00000+0  00000-0 0  9991
2 48425  60.0000 240.0000 0000000   0.0000 348.0000  5.94050274    19
CTC2_L_00602009-09
1 48426U 23545RS  26070.40851852  .00000000  00000+0  00000-0 0  9990
2 48426  60.0000 240.0000 0000000   0.0000  24.0000  5.94050274    11
CTC2_L_00602009-10
1 48427U 23506YQ  26070.40851852  .00000000  00000+0  00000-0 0  9998
2 48427  60.0000 240.0000 0000000   0.0000  60.0000  5.94050274    12
CTC2_L_00602010-01
1 48428U 24268NC  26070.40851852  .00000000  00000+0  00000-0 0  9995
2 48428  60.0000 270.0000 0000000   0.0000 108.0000  5.94050274    19
CTC2_L_00602010-02
1 48429U 24557SG  26070.40851852  .00000000  00000+0  00000-0 0  9997
2 48429  60.0000 270.0000 0000000   0.0000 144.0000  5.94050274    10
CTC2_L_00602010-03
1 48430U 23862KD  26070.40851852  .00000000  00000+0  00000-0 0  9997
2 48430  60.0000 270.0000 0000000   0.0000 180.0000  5.94050274    12
CTC2_L_00602010-04
1 48431U 22772ZK  26070.40851852  .00000000  00000+0  00000-0 0  9997
2 48431  60.0000 270.0000 0000000   0.0000 216.0000  5.94050274    13
CTC2_L_00602010-05
1 48432U 22677VW  26070.40851852  .00000000  00000+0  00000-0 0  9992
2 48432  60.0000 270.0000 0000000   0.0000 252.0000  5.94050274    14
CTC2_L_00602010-06
1 48433U 25108LX  26070.40851852  .00000000  00000+0  00000-0 0  9995
2 48433  60.0000 270.0000 0000000   0.0000 288.0000  5.94050274    14
CTC2_L_00602010-07
1 48434U 24206HC  26070.40851852  .00000000  00000+0  00000-0 0  9994
2 48434  60.0000 270.0000 0000000   0.0000 324.0000  5.94050274    16
CTC2_L_00602010-08
1 48435U 24075HK  26070.40851852  .00000000  00000+0  00000-0 0  9999
2 48435  60.0000 270.0000 0000000   0.0000   0.0000  5.94050274    18
CTC2_L_00602010-09
1 48436U 24216ZA  26070.40851852  .00000000  00000+0  00000-0 0  9997
2 48436  60.0000 270.0000 0000000   0.0000  36.0000  5.94050274    18
CTC2_L_00602010-10
1 48437U 26077WN  26070.40851852  .00000000  00000+0  00000-0 0  9995
2 48437  60.0000 270.0000 0000000   0.0000  72.0000  5.94050274    19
CTC2_L_00602011-01
1 48438U 24754SP  26070.40851852  .00000000  00000+0  00000-0 0  9996
2 48438  60.0000 300.0000 0000000   0.0000 120.0000  5.94050274    18
CTC2_L_00602011-02
1 48439U 23336MK  26070.40851852  .00000000  00000+0  00000-0 0  9992
2 48439  60.0000 300.0000 0000000   0.0000 156.0000  5.94050274    18
CTC2_L_00602011-03
1 48440U 26803QR  26070.40851852  .00000000  00000+0  00000-0 0  9996
2 48440  60.0000 300.0000 0000000   0.0000 192.0000  5.94050274    10
CTC2_L_00602011-04
1 48441U 26569PH  26070.40851852  .00000000  00000+0  00000-0 0  9996
2 48441  60.0000 300.0000 0000000   0.0000 228.0000  5.94050274    11
CTC2_L_00602011-05
1 48442U 22945TP  26070.40851852  .00000000  00000+0  00000-0 0  9991
2 48442  60.0000 300.0000 0000000   0.0000 264.0000  5.94050274    12
CTC2_L_00602011-06
1 48443U 23869KX  26070.40851852  .00000000  00000+0  00000-0 0  9998
2 48443  60.0000 300.0000 0000000   0.0000 300.0000  5.94050274    14
CTC2_L_00602011-07
1 48444U 22741MR  26070.40851852  .00000000  00000+0  00000-0 0  9997
2 48444  60.0000 300.0000 0000000   0.0000 336.0000  5.94050274    14
CTC2_L_00602011-08
1 48445U 25594SW  26070.40851852  .00000000  00000+0  00000-0 0  9997
2 48445  60.0000 300.0000 0000000   0.0000  12.0000  5.94050274    16
CTC2_L_00602011-09
1 48446U 22908SF  26070.40851852  .00000000  00000+0  00000-0 0  9994
2 48446  60.0000 300.0000 0000000   0.0000  48.0000  5.94050274    16
CTC2_L_00602011-10
1 48447U 24946IZ  26070.40851852  .00000000  00000+0  00000-0 0  9999
2 48447  60.0000 300.0000 0000000   0.0000  84.0000  5.94050274    17
CTC2_L_00602012-01
1 48448U 23367PY  26070.40851852  .00000000  00000+0  00000-0 0  9996
2 48448  60.0000 330.0000 0000000   0.0000 132.0000  5.94050274    15
CTC2_L_00602012-02
1 48449U 25659SI  26070.40851852  .00000000  00000+0  00000-0 0  9993
2 48449  60.0000 330.0000 0000000   0.0000 168.0000  5.94050274    15
CTC2_L_00602012-03
1 48450U 22086ZJ  26070.40851852  .00000000  00000+0  00000-0 0  9996
2 48450  60.0000 330.0000 0000000   0.0000 204.0000  5.94050274    18
CTC2_L_00602012-04
1 48451U 24673PY  26070.40851852  .00000000  00000+0  00000-0 0  9991
2 48451  60.0000 330.0000 0000000   0.0000 240.0000  5.94050274    19
CTC2_L_00602012-05
1 48452U 26049AP  26070.40851852  .00000000  00000+0  00000-0 0  9991
2 48452  60.0000 330.0000 0000000   0.0000 276.0000  5.94050274    19
CTC2_L_00602012-06
1 48453U 25724SZ  26070.40851852  .00000000  00000+0  00000-0 0  9991
2 48453  60.0000 330.0000 0000000   0.0000 312.0000  5.94050274    11
CTC2_L_00602012-07
1 48454U 26629NW  26070.40851852  .00000000  00000+0  00000-0 0  9997
2 48454  60.0000 330.0000 0000000   0.0000 348.0000  5.94050274    11
CTC2_L_00602012-08
1 48455U 25796O   26070.40851852  .00000000  00000+0  00000-0 0  9992
2 48455  60.0000 330.0000 0000000   0.0000  24.0000  5.94050274    13
CTC2_L_00602012-09
1 48456U 26228SD  26070.40851852  .00000000  00000+0  00000-0 0  9994
2 48456  60.0000 330.0000 0000000   0.0000  60.0000  5.94050274    14
CTC2_L_00602012-10
1 48457U 23394UP  26070.40851852  .00000000  00000+0  00000-0 0  9996
2 48457  60.0000 330.0000 0000000   0.0000  96.0000  5.94050274    14
